 Automated mail xmit by MAIL_REQUEST, PID=   7160 Sat Oct 11 04:53:16 2014
++++++++++++++++++++++++++++++++ (part 1 of 1)  
++++++++++++++++++++++++++++++++ +++++++++++++++++++++++++++++++

*******************************************************************************
 Revised: Dec 02, 2013           Ganymede / (Jupiter)                       503

 SATELLITE PHYSICAL PROPERTIES:
  Radius (km)             = 2634   +- 10     Density (g cm^-3)  =  1.94 +- 0.02
  Mass (10^20 kg )        = 1482   +- 1      Geometric Albedo   =  0.4

 SATELLITE ORBITAL DATA:
  Semi-major axis, a (km) = 1070.0428 (10^3) Orbital period     = 7.154553 d
  Eccentricity, e         = 0.0006           Rotational period  = Synchronous
  Inclination, i  (deg)   = 0.186
*******************************************************************************
 
 
*******************************************************************************
Ephemeris / MAIL_REQUEST Sat Oct 11 04:53:16 2014 Pasadena, USA  / Horizons    
*******************************************************************************
Target body name: Ganymede (503)                  {source: JUP310}
Center body name: Sun (10)                        {source: DE-0431LE-0431}
Center-site name: BODY CENTER
*******************************************************************************
Start time      : A.D. 2014-Sep-01 10:00:00.0000 CT 
Stop  time      : A.D. 2014-Oct-01 10:00:00.0000 CT 
Step-size       : 2 steps
*******************************************************************************
Center geodetic : 0.00000000,0.00000000,0.0000000 {E-lon(deg),Lat(deg),Alt(km)} Center cylindric: 0.00000000,0.00000000,0.0000000 {E-lon(deg),Dxy(km),Dz(km)}
Center radii    : 696000.0 x 696000.0 x 696000.0 k{Equator, meridian, pole}    
Output units    : AU-D                                                         
Output format   : 03
Reference frame : ICRF/J2000.0                                                 
Output type     : GEOMETRIC cartesian states
Coordinate systm: Ecliptic and Mean Equinox of Reference Epoch                 
*******************************************************************************
JDCT ,   , X, Y, Z, VX, VY, VZ, LT, RG, RR,
*******************************************************************************
$$SOE
2456901.916666667, A.D. 2014-Sep-01 10:00:00.0000, -3.016814534205806E+00,  4.341863247811957E+00,  4.955829812428821E-02, -1.128178426731781E-02, -7.748955258739022E-03, -5.089725777554170E-05,  3.053682222799786E-02,  5.287286867705266E+00,  7.331251940455076E-05, 2456916.916666667, A.D. 2014-Sep-16 10:00:00.0000, -3.112997086642101E+00,  4.278124622576933E+00,  5.174253661238198E-02, -8.139932887735700E-03, -1.004092542260190E-02, -9.418821295301534E-05,  3.055886645309835E-02,  5.291103706962879E+00, -3.330423562247755E-03, 2456931.916666667, A.D. 2014-Oct-01 10:00:00.0000, -3.205358712506221E+00,  4.211662828990524E+00,  5.390501571051830E-02, -4.303446771857573E-03, -1.021714033284568E-02, -4.882195116205294E-05,  3.056953755925445E-02,  5.292951351718505E+00, -5.524269799494091E-03, $$EOE
*******************************************************************************
Coordinate system description:

  Ecliptic and Mean Equinox of Reference Epoch

    Reference epoch: J2000.0
    xy-plane: plane of the Earth's orbit at the reference epoch
    x-axis  : out along ascending node of instantaneous plane of the Earth's
              orbit and the Earth's mean equator at the reference epoch
    z-axis  : perpendicular to the xy-plane in the directional (+ or -) sense
              of Earth's north pole at the reference epoch.

Symbol meaning [1 au=149597870.700 km, 1 day=86400.0 s]:

    JDCT     Epoch Julian Date, Coordinate Time
      X      x-component of position vector (AU)                               
      Y      y-component of position vector (AU)                               
      Z      z-component of position vector (AU)                               
      VX     x-component of velocity vector (AU/day)                           
      VY     y-component of velocity vector (AU/day)                           
      VZ     z-component of velocity vector (AU/day)                           
      LT     One-way down-leg Newtonian light-time (day)                       
      RG     Range; distance from coordinate center (AU)                       
      RR     Range-rate; radial velocity wrt coord. center (AU/day)            

Geometric states/elements have no aberration corrections applied.

 Computations by ...
     Solar System Dynamics Group, Horizons On-Line Ephemeris System
     4800 Oak Grove Drive, Jet Propulsion Laboratory
     Pasadena, CA  91109   USA
     Information: http://ssd.jpl.nasa.gov/
     Connect    : telnet://ssd.jpl.nasa.gov:6775  (via browser)
                  telnet ssd.jpl.nasa.gov 6775    (via command-line)
     Author     : Jon.Giorgini@jpl.nasa.gov
*******************************************************************************
